LUR-1                   
1 60506U 24149AQ  26068.79566301  .00009121  00000+0  32985-3 0  9998
2 60506  97.3790 148.4255 0002777 309.1571  50.9421 15.28658648 86785
STARLINK-33628          
1 63067U 25035R   26068.27333708  .00023021  00000+0  84325-3 0  9994
2 63067  42.9927 149.6335 0002593 157.1394 202.9573 15.27586768 59666
